[{"OBJECT_NAME":"STARLINK-5210","OBJECT_ID":"2022-136AH","EPOCH":"2026-03-09T23:15:29.801952","MEAN_MOTION":15.08834611,"ECCENTRICITY":0.00013122,"INCLINATION":53.2195,"RA_OF_ASC_NODE":333.0485,"ARG_OF_PERICENTER":109.6373,"MEAN_ANOMALY":250.4761,"EPHEMERIS_TYPE":0,"CLASSIFICATION_TYPE":"U","NORAD_CAT_ID":54082,"ELEMENT_SET_NO":999,"REV_AT_EPOCH":18702,"BSTAR":-2.7081662e-5,"MEAN_MOTION_DOT":-7.19e-6,"MEAN_MOTION_DDOT":0},{"OBJECT_NAME":"CZ-6A DEB","OBJECT_ID":"2022-151BX","EPOCH":"2026-03-09T18:04:18.424992","MEAN_MOTION":15.16566225,"ECCENTRICITY":0.00404449,"INCLINATION":98.6231,"RA_OF_ASC_NODE":169.9483,"ARG_OF_PERICENTER":104.1368,"MEAN_ANOMALY":256.4361,"EPHEMERIS_TYPE":0,"CLASSIFICATION_TYPE":"U","NORAD_CAT_ID":54328,"ELEMENT_SET_NO":999,"REV_AT_EPOCH":10563,"BSTAR":0.0050960293,"MEAN_MOTION_DOT":0.00102794,"MEAN_MOTION_DDOT":0}]
